{
    "links": {
        "self": "http://www.neowsapp.com/rest/v1/neo/3555046?api_key=iIulBulltgU6a56xZRHN4H3l9WmuAYTsLGpBGhQ2"
    },
    "id": "3555046",
    "neo_reference_id": "3555046",
    "name": "(2011 AN4)",
    "designation": "2011 AN4",
    "nasa_jpl_url": "http://ssd.jpl.nasa.gov/sbdb.cgi?sstr=3555046",
    "absolute_magnitude_h": 26.4,
    "estimated_diameter": {
        "kilometers": {
            "estimated_diameter_min": 0.0139493823,
            "estimated_diameter_max": 0.0311917671
        },
        "meters": {
            "estimated_diameter_min": 13.9493822934,
            "estimated_diameter_max": 31.1917670523
        },
        "miles": {
            "estimated_diameter_min": 0.0086677416,
            "estimated_diameter_max": 0.0193816595
        },
        "feet": {
            "estimated_diameter_min": 45.7656914036,
            "estimated_diameter_max": 102.3351970157
        }
    },
    "is_potentially_hazardous_asteroid": false,
    "close_approach_data": [
        {
            "close_approach_date": "2011-01-09",
            "close_approach_date_full": "2011-Jan-09 23:21",
            "epoch_date_close_approach": 1294615260000,
            "relative_velocity": {
                "kilometers_per_second": "10.4574290903",
                "kilometers_per_hour": "37646.7447249623",
                "miles_per_hour": "23392.2231320189"
            },
            "miss_distance": {
                "astronomical": "0.0131363853",
                "lunar": "5.1100538817",
                "kilometers": "1965175.260379311",
                "miles": "1221103.2834880518"
            },
            "orbiting_body": "Earth"
        }
    ],
    "orbital_data": {
        "orbit_id": "8",
        "orbit_determination_date": "2017-04-06 08:55:03",
        "first_observation_date": "2011-01-05",
        "last_observation_date": "2011-01-09",
        "data_arc_in_days": 4,
        "observations_used": 29,
        "orbit_uncertainty": "7",
        "minimum_orbit_intersection": ".0129955",
        "jupiter_tisserand_invariant": "3.665",
        "epoch_osculation": "2459000.5",
        "eccentricity": ".5319551258676304",
        "semi_major_axis": "1.97873104539748",
        "inclination": "7.563539791863786",
        "ascending_node_longitude": "284.0692091124428",
        "orbital_period": "1016.66665216862",
        "perihelion_distance": ".9261349230848757",
        "perihelion_argument": "220.4124842042059",
        "aphelion_distance": "3.031327167710085",
        "perihelion_time": "2458646.759729821744",
        "mean_anomaly": "125.2588515542764",
        "mean_motion": ".3540983657053128",
        "equinox": "J2000",
        "orbit_class": {
            "orbit_class_type": "APO",
            "orbit_class_description": "Near-Earth asteroid orbits which cross the Earth’s orbit similar to that of 1862 Apollo",
            "orbit_class_range": "a (semi-major axis) > 1.0 AU; q (perihelion) < 1.017 AU"
        }
    },
    "is_sentry_object": false
}